OBJECT_NAME,OBJECT_ID,EPOCH,MEAN_MOTION,ECCENTRICITY,INCLINATION,RA_OF_ASC_NODE,ARG_OF_PERICENTER,MEAN_ANOMALY,EPHEMERIS_TYPE,CLASSIFICATION_TYPE,NORAD_CAT_ID,ELEMENT_SET_NO,REV_AT_EPOCH,BSTAR,MEAN_MOTION_DOT,MEAN_MOTION_DDOT
TJS-10,2023-169A,2026-07-18T19:51:04.082976,1.00273021,.0004093,2.6241,80.1128,113.4926,133.1890,0,U,58204,999,985,0,-.257E-5,0
ZHONGXING-6E,2023-172A,2026-07-19T08:35:13.557120,1.00269836,.00029267,0.0313,91.9638,19.0453,70.4510,0,U,58253,999,998,0,-.366E-5,0
YAOGAN-41,2023-197A,2026-07-19T12:03:07.062048,1.00275372,.00139782,3.0705,313.6601,200.5036,87.0423,0,U,58582,999,964,0,-.365E-5,0
OVZON-3,2024-003A,2026-07-19T20:41:09.513888,1.00273189,.0000048,0.0176,138.6958,295.4756,233.4413,0,U,58698,999,777,0,.48E-6,0
INSAT-3DS,2024-033A,2026-07-19T20:24:41.635296,1.00270797,.0001249,0.0783,263.9626,220.8989,200.9993,0,U,58990,999,4739,0,-.159E-5,0
MERAH PUTIH 2,2024-035A,2026-07-19T20:33:25.797312,1.00269661,.0001285,0.0187,66.2240,45.8745,246.8586,0,U,58995,999,891,0,0,0
TJS-11,2024-037A,2026-07-19T16:37:51.470112,1.00272166,.0001984,4.1569,327.4956,154.9321,177.0954,0,U,59020,999,890,0,-.366E-5,0
HULIANWAN GAOGUI-01 (HG-01),2024-040A,2026-07-19T21:01:29.595072,1.00272996,.0001838,0.0768,330.0516,76.4758,240.1446,0,U,59069,999,765,0,.153E-5,0
EUTELSAT 36D,2024-059A,2026-07-19T06:30:14.538240,1.00269127,.00001182,0.0226,66.4586,12.1168,351.9221,0,U,59346,999,846,0,0,0
PAKSAT-MM1,2024-104A,2026-07-19T11:38:48.312096,1.00273304,.00021603,0.0275,149.2568,309.8874,51.0085,0,U,59915,999,785,0,.149E-5,0
ASTRA 1P (SES-24),2024-115A,2026-07-19T13:16:08.907168,1.00267390,.0000783,0.0679,329.0315,219.3802,327.1603,0,U,60086,999,752,0,.115E-5,0
GOES 19,2024-119A,2026-07-19T20:25:38.814816,1.00272657,.0000282,0.0191,140.8371,50.0446,337.9637,0,U,60133,999,729,0,-.252E-5,0
ZHONGXING-3A,2024-122A,2026-07-18T22:03:44.103744,1.00273255,.0001833,0.0292,137.1691,19.8104,212.2555,0,U,60179,999,762,0,-.32E-5,0
TURKSAT 6A,2024-127A,2026-07-19T20:13:12.736128,1.00273261,.0003116,0.0549,218.7582,307.3200,116.8087,0,U,60233,999,734,0,.143E-5,0
HULIANWAN GAOGUI-02 (HG-02),2024-135A,2026-07-19T03:38:12.433056,1.00271644,.00061695,0.0477,354.3317,15.7361,134.4616,0,U,60327,999,782,0,-.179E-5,0
ZHONGXING-4A,2024-151A,2026-07-19T21:11:48.175008,1.00273307,.0000089,1.2311,270.4372,18.5792,84.8147,0,U,60606,999,708,0,-.365E-5,0
HULIANWAN GAOGUI-03 (HG-03),2024-181A,2026-07-20T04:57:37.901088,1.00263904,.0001091,0.0528,355.0791,99.4205,200.7399,0,U,61503,999,715,0,-.242E-5,0
DSN-3 (KIRAMEKI-3),2024-198A,2026-07-19T18:48:38.666304,1.00271402,.0001074,0.0462,236.9739,263.1415,223.6756,0,U,61733,999,624,0,-.254E-5,0
KOREASAT 6A,2024-206A,2026-07-19T20:34:18.211872,1.00273230,.0001013,0.0250,102.7348,337.5905,281.8991,0,U,61910,999,616,0,-.365E-5,0
OPTUS-X (ADS-01),2024-212A,2026-07-19T19:03:08.283168,1.00271988,.0002358,0.0167,50.0058,87.5344,242.2208,0,U,62006,999,608,0,-.147E-5,0
GSAT-N2 (GSAT-20),2024-214A,2026-07-19T20:20:34.529568,1.00272311,.0002695,0.0615,260.3164,149.8605,260.5258,0,U,62028,999,622,0,-.22E-6,0
SXM-9,2024-234A,2026-07-19T19:36:57.539232,1.00272196,.000494,0.0232,322.4775,0.1469,184.0468,0,U,62259,999,590,0,-.209E-5,0
TJS-12,2024-246A,2026-07-19T19:00:23.546016,1.00268326,.0001898,0.6014,302.6664,102.0262,324.4538,0,U,62374,999,589,0,-.235E-5,0
NUVIEW ALPHA,2024-252B,2026-07-19T12:46:56.707392,1.00272055,.0001243,0.0395,17.4855,72.9150,315.5570,0,U,62455,999,414,0,-.22E-5,0
AGILA,2024-252C,2026-07-19T19:02:00.890304,1.00271917,.000144,0.0376,151.0625,329.7226,254.4587,0,U,62456,999,548,0,-.185E-5,0
NUVIEW BRAVO,2024-252D,2026-07-19T12:46:56.707392,1.00272398,.0001771,0.0675,169.5707,333.9915,262.3823,0,U,62457,999,411,0,-.219E-5,0
THURAYA-4,2025-001A,2026-07-19T20:13:50.174976,1.00272319,.0000031,0.0201,76.1083,335.7287,233.5563,0,U,62483,999,450,0,.136E-5,0
SHIJIAN-25 (SJ-25),2025-002A,2026-07-18T19:46:25.225248,1.00279843,.0050886,5.1867,60.9651,176.5823,122.7745,0,U,62485,999,567,0,-.358E-5,0
TJS-14,2025-017A,2026-07-19T20:44:11.461920,1.00269543,.0001909,0.7104,298.1354,305.1791,23.7474,0,U,62804,999,559,0,.112E-5,0
SPAINSAT NG I,2025-021A,2026-07-19T20:56:43.958400,1.00266398,.0000552,0.0201,48.8769,129.2664,102.6699,0,U,62852,999,431,0,.148E-5,0
QZS-6 (MICHIBIKI-6),2025-023A,2026-07-19T20:27:03.905856,1.00274461,.0001932,0.0125,41.0875,73.9306,219.8516,0,U,62876,999,527,0,-.237E-5,0
ZHONGXING-10R,2025-036A,2026-07-19T20:32:40.869312,1.00270316,.0004371,0.0249,163.6370,342.7346,209.9456,0,U,63075,999,528,0,-.355E-5,0
