TJS-10                  
1 58204U 23169A   26199.82713059 -.00000257  00000+0  00000+0 0  9995
2 58204   2.6241  80.1128 0004093 113.4926 133.1890  1.00273021  9851
ZHONGXING-6E            
1 58253U 23172A   26200.35779580 -.00000366  00000+0  00000+0 0  9996
2 58253   0.0313  91.9638 0002926  19.0453  70.4510  1.00269836  9987
YAOGAN-41               
1 58582U 23197A   26200.50216507 -.00000365  00000+0  00000+0 0  9999
2 58582   3.0705 313.6601 0013978 200.5036  87.0423  1.00275372  9649
OVZON-3                 
1 58698U 24003A   26200.86191567  .00000048  00000+0  00000+0 0  9998
2 58698   0.0176 138.6958 0000048 295.4756 233.4413  1.00273189  7774
INSAT-3DS               
1 58990U 24033A   26200.85048189 -.00000159  00000+0  00000+0 0  9990
2 58990   0.0783 263.9626 0001249 220.8989 200.9993  1.00270797 47397
MERAH PUTIH 2           
1 58995U 24035A   26200.85654858  .00000000  00000+0  00000+0 0  9997
2 58995   0.0187  66.2240 0001285  45.8745 246.8586  1.00269661  8911
TJS-11                  
1 59020U 24037A   26200.69295683 -.00000366  00000+0  00000+0 0  9994
2 59020   4.1569 327.4956 0001984 154.9321 177.0954  1.00272166  8901
HULIANWAN GAOGUI-01 (H*)
1 59069U 24040A   26200.87603698  .00000153  00000+0  00000+0 0  9993
2 59069   0.0768 330.0516 0001838  76.4758 240.1446  1.00272996  7652
EUTELSAT 36D            
1 59346U 24059A   26200.27100160  .00000000  00000+0  00000+0 0  9992
2 59346   0.0226  66.4586 0000118  12.1168 351.9221  1.00269127  8462
PAKSAT-MM1              
1 59915U 24104A   26200.48528139  .00000149  00000+0  00000+0 0  9992
2 59915   0.0275 149.2568 0002160 309.8874  51.0085  1.00273304  7857
ASTRA 1P (SES-24)       
1 60086U 24115A   26200.55288087  .00000115  00000+0  00000+0 0  9991
2 60086   0.0679 329.0315 0000783 219.3802 327.1603  1.00267390  7524
GOES 19                 
1 60133U 24119A   26200.85114369 -.00000252  00000+0  00000+0 0  9995
2 60133   0.0191 140.8371 0000282  50.0446 337.9637  1.00272657  7297
ZHONGXING-3A            
1 60179U 24122A   26199.91926046 -.00000320  00000+0  00000+0 0  9992
2 60179   0.0292 137.1691 0001833  19.8104 212.2555  1.00273255  7626
TURKSAT 6A              
1 60233U 24127A   26200.84250852  .00000143  00000+0  00000+0 0  9990
2 60233   0.0549 218.7582 0003116 307.3200 116.8087  1.00273261  7340
HULIANWAN GAOGUI-02 (H*)
1 60327U 24135A   26200.15153279 -.00000179  00000+0  00000+0 0  9992
2 60327   0.0477 354.3317 0006169  15.7361 134.4616  1.00271644  7826
ZHONGXING-4A            
1 60606U 24151A   26200.88319647 -.00000365  00000+0  00000+0 0  9990
2 60606   1.2311 270.4372 0000089  18.5792  84.8147  1.00273307  7082
HULIANWAN GAOGUI-03 (H*)
1 61503U 24181A   26201.20668867 -.00000242  00000+0  00000+0 0  9992
2 61503   0.0528 355.0791 0001091  99.4205 200.7399  1.00263904  7150
DSN-3 (KIRAMEKI-3)      
1 61733U 24198A   26200.78378086 -.00000254  00000+0  00000+0 0  9991
2 61733   0.0462 236.9739 0001074 263.1415 223.6756  1.00271402  6247
KOREASAT 6A             
1 61910U 24206A   26200.85715523 -.00000365  00000+0  00000+0 0  9990
2 61910   0.0250 102.7348 0001013 337.5905 281.8991  1.00273230  6167
OPTUS-X (ADS-01)        
1 62006U 24212A   26200.79384587 -.00000147  00000+0  00000+0 0  9997
2 62006   0.0167  50.0058 0002358  87.5344 242.2208  1.00271988  6087
GSAT-N2 (GSAT-20)       
1 62028U 24214A   26200.84762187 -.00000022  00000+0  00000+0 0  9997
2 62028   0.0615 260.3164 0002695 149.8605 260.5258  1.00272311  6224
SXM-9                   
1 62259U 24234A   26200.81733263 -.00000209  00000+0  00000+0 0  9992
2 62259   0.0232 322.4775 0004940   0.1469 184.0468  1.00272196  5903
TJS-12                  
1 62374U 24246A   26200.79193919 -.00000235  00000+0  00000+0 0  9997
2 62374   0.6014 302.6664 0001898 102.0262 324.4538  1.00268326  5890
NUVIEW ALPHA            
1 62455U 24252B   26200.53260078 -.00000220  00000+0  00000+0 0  9991
2 62455   0.0395  17.4855 0001243  72.9150 315.5570  1.00272055  4142
AGILA                   
1 62456U 24252C   26200.79306586 -.00000185  00000+0  00000+0 0  9995
2 62456   0.0376 151.0625 0001440 329.7226 254.4587  1.00271917  5481
NUVIEW BRAVO            
1 62457U 24252D   26200.53260078 -.00000219  00000+0  00000+0 0  9991
2 62457   0.0675 169.5707 0001771 333.9915 262.3823  1.00272398  4112
THURAYA-4               
1 62483U 25001A   26200.84294184  .00000136  00000+0  00000+0 0  9999
2 62483   0.0201  76.1083 0000031 335.7287 233.5563  1.00272319  4503
SHIJIAN-25 (SJ-25)      
1 62485U 25002A   26199.82390307 -.00000358  00000+0  00000+0 0  9998
2 62485   5.1867  60.9651 0050886 176.5823 122.7745  1.00279843  5670
TJS-14                  
1 62804U 25017A   26200.86402155  .00000112  00000+0  00000+0 0  9998
2 62804   0.7104 298.1354 0001909 305.1791  23.7474  1.00269543  5597
SPAINSAT NG I           
1 62852U 25021A   26200.87273100  .00000148  00000+0  00000+0 0  9992
2 62852   0.0201  48.8769 0000552 129.2664 102.6699  1.00266398  4318
QZS-6 (MICHIBIKI-6)     
1 62876U 25023A   26200.85212854 -.00000237  00000+0  00000+0 0  9997
2 62876   0.0125  41.0875 0001932  73.9306 219.8516  1.00274461  5278
ZHONGXING-10R           
1 63075U 25036A   26200.85602858 -.00000355  00000+0  00000+0 0  9991
2 63075   0.0249 163.6370 0004371 342.7346 209.9456  1.00270316  5288
